start=new Date('2023-01-31T00:00:00.000Z').valueOf();
sats=[{"SITE":"AFETR","OBJECT_TYPE":"PAYLOAD","ELEMENT_SET_NO":"999","APOAPSIS":"548.167","NORAD_CAT_ID":"48293","RCS_SIZE":"LARGE","RA_OF_ASC_NODE":"133.2318","TIME_SYSTEM":"UTC","TLE_LINE1":"1 48293U 21036T   23030.49397846  .00000842  00000-0  75423-4 0  9995","ARG_OF_PERICENTER":"75.1581","GP_ID":"223995250","REV_AT_EPOCH":"9736","MEAN_MOTION":"15.06397706","FILE":"3765576","EPHEMERIS_TYPE":"0","INCLINATION":"53.0523","LAUNCH_DATE":"2021-04-29","PERIAPSIS":"546.275","CENTER_NAME":"EARTH","MEAN_ANOMALY":"284.9559","SEMIMAJOR_AXIS":"6925.356","ECCENTRICITY":"0.00013660","CLASSIFICATION_TYPE":"U","PERIOD":"95.592","TLE_LINE2":"2 48293  53.0523 133.2318 0001366  75.1581 284.9559 15.06397706 97361","MEAN_MOTION_DOT":"0.00000842","BSTAR":"0.00007542300000","MEAN_MOTION_DDOT":"0.0000000000000","OBJECT_NAME":"STARLINK-2550","MEAN_ELEMENT_THEORY":"SGP4","COUNTRY_CODE":"US","OBJECT_ID":"2021-036T","EPOCH":"2023-01-30T11:51:19.738944","REF_FRAME":"TEME","DECAY_DATE":null},{"MEAN_ANOMALY":"277.8946","SEMIMAJOR_AXIS":"6925.345","INCLINATION":"53.0539","CENTER_NAME":"EARTH","PERIAPSIS":"546.260","LAUNCH_DATE":"2021-04-29","TLE_LINE1":"1 48294U 21036U   23030.49028543  .00001799  00000-0  13963-3 0  9993","RCS_SIZE":"LARGE","TIME_SYSTEM":"UTC","RA_OF_ASC_NODE":"133.2455","NORAD_CAT_ID":"48294","APOAPSIS":"548.159","FILE":"3765576","EPHEMERIS_TYPE":"0","MEAN_MOTION":"15.06401196","REV_AT_EPOCH":"9736","GP_ID":"223995990","ARG_OF_PERICENTER":"82.2199","ELEMENT_SET_NO":"999","OBJECT_TYPE":"PAYLOAD","SITE":"AFETR","DECAY_DATE":null,"REF_FRAME":"TEME","EPOCH":"2023-01-30T11:46:00.661152","OBJECT_ID":"2021-036U","BSTAR":"0.00013963000000","MEAN_MOTION_DOT":"0.00001799","COUNTRY_CODE":"US","OBJECT_NAME":"STARLINK-2533","MEAN_MOTION_DDOT":"0.0000000000000","MEAN_ELEMENT_THEORY":"SGP4","PERIOD":"95.592","TLE_LINE2":"2 48294  53.0539 133.2455 0001371  82.2199 277.8946 15.06401196 97361","CLASSIFICATION_TYPE":"U","ECCENTRICITY":"0.00013710"},{"CLASSIFICATION_TYPE":"U","ECCENTRICITY":"0.00015250","TLE_LINE2":"2 48295  53.0534 133.2559 0001525  71.8430 288.2725 15.06396757 97362","PERIOD":"95.592","MEAN_ELEMENT_THEORY":"SGP4","MEAN_MOTION_DDOT":"0.0000000000000","OBJECT_NAME":"STARLINK-2535","COUNTRY_CODE":"US","MEAN_MOTION_DOT":"0.00001015","BSTAR":"0.00008706200000","DECAY_DATE":null,"EPOCH":"2023-01-30T11:40:43.037472","OBJECT_ID":"2021-036V","REF_FRAME":"TEME","ELEMENT_SET_NO":"999","SITE":"AFETR","OBJECT_TYPE":"PAYLOAD","FILE":"3765576","EPHEMERIS_TYPE":"0","ARG_OF_PERICENTER":"71.8430","GP_ID":"223994752","REV_AT_EPOCH":"9736","MEAN_MOTION":"15.06396757","TLE_LINE1":"1 48295U 21036V   23030.48660923  .00001015  00000-0  87062-4 0  9990","NORAD_CAT_ID":"48295","APOAPSIS":"548.280","RA_OF_ASC_NODE":"133.2559","RCS_SIZE":"LARGE","TIME_SYSTEM":"UTC","CENTER_NAME":"EARTH","PERIAPSIS":"546.167","LAUNCH_DATE":"2021-04-29","INCLINATION":"53.0534","SEMIMAJOR_AXIS":"6925.358","MEAN_ANOMALY":"288.2725"},{"NORAD_CAT_ID":"48296","APOAPSIS":"548.105","RCS_SIZE":"LARGE","RA_OF_ASC_NODE":"132.9777","TIME_SYSTEM":"UTC","TLE_LINE1":"1 48296U 21036W   23030.54926797  .00001933  00000-0  14864-3 0  9990","REV_AT_EPOCH":"9795","GP_ID":"224027557","ARG_OF_PERICENTER":"85.4601","MEAN_MOTION":"15.06399697","FILE":"3765647","EPHEMERIS_TYPE":"0","SITE":"AFETR","OBJECT_TYPE":"PAYLOAD","ELEMENT_SET_NO":"999","MEAN_ANOMALY":"274.6535","SEMIMAJOR_AXIS":"6925.349","INCLINATION":"53.0544","PERIAPSIS":"546.324","LAUNCH_DATE":"2021-04-29","CENTER_NAME":"EARTH","PERIOD":"95.592","TLE_LINE2":"2 48296  53.0544 132.9777 0001286  85.4601 274.6535 15.06399697 97956","ECCENTRICITY":"0.00012860","CLASSIFICATION_TYPE":"U","OBJECT_ID":"2021-036W","EPOCH":"2023-01-30T13:10:56.752608","REF_FRAME":"TEME","DECAY_DATE":null,"MEAN_MOTION_DOT":"0.00001933","BSTAR":"0.00014864000000","MEAN_ELEMENT_THEORY":"SGP4","MEAN_MOTION_DDOT":"0.0000000000000","OBJECT_NAME":"STARLINK-2546","COUNTRY_CODE":"US"},{"TLE_LINE2":"2 48297  53.0538 133.2943 0001299  89.0063 271.1075 15.06396416 97941","PERIOD":"95.592","CLASSIFICATION_TYPE":"U","ECCENTRICITY":"0.00012990","DECAY_DATE":null,"OBJECT_ID":"2021-036X","EPOCH":"2023-01-30T11:30:06.228000","REF_FRAME":"TEME","MEAN_MOTION_DDOT":"0.0000000000000","OBJECT_NAME":"STARLINK-2544","MEAN_ELEMENT_THEORY":"SGP4","COUNTRY_CODE":"US","MEAN_MOTION_DOT":"0.00001840","BSTAR":"0.00014241000000","EPHEMERIS_TYPE":"0","FILE":"3765648","REV_AT_EPOCH":"9794","GP_ID":"224027576","ARG_OF_PERICENTER":"89.0063","MEAN_MOTION":"15.06396416","TLE_LINE1":"1 48297U 21036X   23030.47923875  .00001840  00000-0  14241-3 0  9993","NORAD_CAT_ID":"48297","APOAPSIS":"548.124","RA_OF_ASC_NODE":"133.2943","RCS_SIZE":"LARGE","TIME_SYSTEM":"UTC","ELEMENT_SET_NO":"999","SITE":"AFETR","OBJECT_TYPE":"PAYLOAD","SEMIMAJOR_AXIS":"6925.360","MEAN_ANOMALY":"271.1075","CENTER_NAME":"EARTH","LAUNCH_DATE":"2021-04-29","PERIAPSIS":"546.325","INCLINATION":"53.0538"},{"SEMIMAJOR_AXIS":"6925.370","MEAN_ANOMALY":"285.5797","CENTER_NAME":"EARTH","LAUNCH_DATE":"2021-04-29","PERIAPSIS":"546.265","INCLINATION":"53.0531","EPHEMERIS_TYPE":"0","FILE":"3765576","GP_ID":"223995490","REV_AT_EPOCH":"9736","ARG_OF_PERICENTER":"74.5347","MEAN_MOTION":"15.06393160","TLE_LINE1":"1 48298U 21036Y   23030.47555476  .00000787  00000-0  71737-4 0  9995","NORAD_CAT_ID":"48298","APOAPSIS":"548.204","RCS_SIZE":"LARGE","RA_OF_ASC_NODE":"133.3173","TIME_SYSTEM":"UTC","ELEMENT_SET_NO":"999","SITE":"AFETR","OBJECT_TYPE":"PAYLOAD","DECAY_DATE":null,"EPOCH":"2023-01-30T11:24:47.931264","OBJECT_ID":"2021-036Y","REF_FRAME":"TEME","MEAN_MOTION_DDOT":"0.0000000000000","MEAN_ELEMENT_THEORY":"SGP4","OBJECT_NAME":"STARLINK-2559","COUNTRY_CODE":"US","MEAN_MOTION_DOT":"0.00000787","BSTAR":"0.00007173700000","TLE_LINE2":"2 48298  53.0531 133.3173 0001400  74.5347 285.5797 15.06393160 97368","PERIOD":"95.593","CLASSIFICATION_TYPE":"U","ECCENTRICITY":"0.00014000"},{"ELEMENT_SET_NO":"999","OBJECT_TYPE":"PAYLOAD","SITE":"AFETR","FILE":"3765669","EPHEMERIS_TYPE":"0","MEAN_MOTION":"15.06395226","GP_ID":"224027926","REV_AT_EPOCH":"9794","ARG_OF_PERICENTER":"83.9005","TLE_LINE1":"1 48299U 21036Z   23030.47186435  .00000922  00000-0  80781-4 0  9991","TIME_SYSTEM":"UTC","RCS_SIZE":"LARGE","RA_OF_ASC_NODE":"133.3202","NORAD_CAT_ID":"48299","APOAPSIS":"547.994","CENTER_NAME":"EARTH","LAUNCH_DATE":"2021-04-29","PERIAPSIS":"546.462","INCLINATION":"53.0542","SEMIMAJOR_AXIS":"6925.363","MEAN_ANOMALY":"276.2110","CLASSIFICATION_TYPE":"U","ECCENTRICITY":"0.00011060","TLE_LINE2":"2 48299  53.0542 133.3202 0001106  83.9005 276.2110 15.06395226 97947","PERIOD":"95.592","COUNTRY_CODE":"US","OBJECT_NAME":"STARLINK-2557","MEAN_MOTION_DDOT":"0.0000000000000","MEAN_ELEMENT_THEORY":"SGP4","BSTAR":"0.00008078100000","MEAN_MOTION_DOT":"0.00000922","DECAY_DATE":null,"REF_FRAME":"TEME","EPOCH":"2023-01-30T11:19:29.079840","OBJECT_ID":"2021-036Z"},{"SEMIMAJOR_AXIS":"6925.364","MEAN_ANOMALY":"257.5302","LAUNCH_DATE":"2021-04-29","PERIAPSIS":"546.309","CENTER_NAME":"EARTH","INCLINATION":"53.0558","MEAN_MOTION":"15.06394864","GP_ID":"223995001","REV_AT_EPOCH":"9722","ARG_OF_PERICENTER":"102.5836","EPHEMERIS_TYPE":"0","FILE":"3765576","TIME_SYSTEM":"UTC","RCS_SIZE":"LARGE","RA_OF_ASC_NODE":"143.3517","NORAD_CAT_ID":"48300","APOAPSIS":"548.150","TLE_LINE1":"1 48300U 21036AA  23030.46357059  .00000946  00000-0  82398-4 0  9997","OBJECT_TYPE":"PAYLOAD","SITE":"AFETR","ELEMENT_SET_NO":"999","REF_FRAME":"TEME","OBJECT_ID":"2021-036AA","EPOCH":"2023-01-30T11:07:32.498976","DECAY_DATE":null,"COUNTRY_CODE":"US","MEAN_MOTION_DDOT":"0.0000000000000","MEAN_ELEMENT_THEORY":"SGP4","OBJECT_NAME":"STARLINK-2538","BSTAR":"0.00008239800000","MEAN_MOTION_DOT":"0.00000946","TLE_LINE2":"2 48300  53.0558 143.3517 0001329 102.5836 257.5302 15.06394864 97227","PERIOD":"95.592","ECCENTRICITY":"0.00013290","CLASSIFICATION_TYPE":"U"},{"ECCENTRICITY":"0.00010210","CLASSIFICATION_TYPE":"U","TLE_LINE2":"2 48301  53.0531 143.0763 0001021  89.0362 271.0744 15.06397828 97225","PERIOD":"95.592","COUNTRY_CODE":"US","MEAN_ELEMENT_THEORY":"SGP4","MEAN_MOTION_DDOT":"0.0000000000000","OBJECT_NAME":"STARLINK-2537","BSTAR":"0.00008701600000","MEAN_MOTION_DOT":"0.00001015","REF_FRAME":"TEME","OBJECT_ID":"2021-036AB","EPOCH":"2023-01-30T12:37:46.208064","DECAY_DATE":null,"OBJECT_TYPE":"PAYLOAD","SITE":"AFETR","ELEMENT_SET_NO":"999","MEAN_MOTION":"15.06397828","GP_ID":"223995251","ARG_OF_PERICENTER":"89.0362","REV_AT_EPOCH":"9722","FILE":"3765576","EPHEMERIS_TYPE":"0","RA_OF_ASC_NODE":"143.0763","RCS_SIZE":"LARGE","TIME_SYSTEM":"UTC","NORAD_CAT_ID":"48301","APOAPSIS":"547.927","TLE_LINE1":"1 48301U 21036AB  23030.52622926  .00001015  00000-0  87016-4 0  9993","LAUNCH_DATE":"2021-04-29","PERIAPSIS":"546.513","CENTER_NAME":"EARTH","INCLINATION":"53.0531","SEMIMAJOR_AXIS":"6925.355","MEAN_ANOMALY":"271.0744"},{"OBJECT_TYPE":"PAYLOAD","SITE":"AFETR","ELEMENT_SET_NO":"999","RCS_SIZE":"LARGE","TIME_SYSTEM":"UTC","RA_OF_ASC_NODE":"143.3873","NORAD_CAT_ID":"48302","APOAPSIS":"547.911","TLE_LINE1":"1 48302U 21036AC  23030.45617836  .00003717  00000-0  26823-3 0  9999","MEAN_MOTION":"15.06406460","GP_ID":"223995991","ARG_OF_PERICENTER":"108.8745","REV_AT_EPOCH":"9721","FILE":"3765576","EPHEMERIS_TYPE":"0","INCLINATION":"53.0557","PERIAPSIS":"546.477","LAUNCH_DATE":"2021-04-29","CENTER_NAME":"EARTH","MEAN_ANOMALY":"251.2357","SEMIMAJOR_AXIS":"6925.329","ECCENTRICITY":"0.00010350","CLASSIFICATION_TYPE":"U","PERIOD":"95.592","TLE_LINE2":"2 48302  53.0557 143.3873 0001035 108.8745 251.2357 15.06406460 97211","BSTAR":"0.00026823000000","MEAN_MOTION_DOT":"0.00003717","COUNTRY_CODE":"US","OBJECT_NAME":"STARLINK-2556","MEAN_MOTION_DDOT":"0.0000000000000","MEAN_ELEMENT_THEORY":"SGP4","REF_FRAME":"TEME","EPOCH":"2023-01-30T10:56:53.810304","OBJECT_ID":"2021-036AC","DECAY_DATE":null}];
